{
  "norad_id": 60433,
  "name": "STARLINK-32183",
  "history": [
    {
      "epoch": "2026-03-28T12:48:51.908832",
      "apogee_km": 476.00649223767687,
      "perigee_km": 474.449133617587,
      "latitude_deg": 5.258690835112347,
      "longitude_deg": -85.44232351984829,
      "semi_major_axis_km": 6853.364812927632,
      "eccentricity": 0.00011362,
      "inclination_deg": 53.1603,
      "raan_deg": 129.6488,
      "arg_perigee_deg": 71.5676,
      "mean_anomaly_deg": 288.5448,
      "mean_motion_rev_day": 15.30195732
    }
  ]
}